#aV2023 11  3  0  0  0.00000000     288 DD+AD WGS84 FIT  NGA
## 2286 432000.00000000   300.00000000 60251 0.0000000000000
+   32     1  2  3  4  5  6  7  8  9 10 11 12 13 14 15 16 17
+         18 19 20 21 22 23 24 25 26 27 28 29 30 31 32  0  0
+          0  0  0  0  0  0  0  0  0  0  0  0  0  0  0  0  0
+          0  0  0  0  0  0  0  0  0  0  0  0  0  0  0  0  0
+          0  0  0  0  0  0  0  0  0  0  0  0  0  0  0  0  0
++         2  2  2  2  2  2  2  2  2  2  2  2  2  2  2  2  2
++         2  2  2  2  2  2  2  2  2  2  2  2  2  2  2  0  0
++         0  0  0  0  0  0  0  0  0  0  0  0  0  0  0  0  0
++         0  0  0  0  0  0  0  0  0  0  0  0  0  0  0  0  0
++         0  0  0  0  0  0  0  0  0  0  0  0  0  0  0  0  0
%c cc cc ccc ccc cccc cccc cccc cccc ccccc ccccc ccccc ccccc
%c cc cc ccc ccc cccc cccc cccc cccc ccccc ccccc ccccc ccccc
%f  0.0000000  0.000000000  0.00000000000  0.000000000000000
%f  0.0000000  0.000000000  0.00000000000  0.000000000000000
%i    0    0    0    0      0      0      0      0         0
%i    0    0    0    0      0      0      0      0         0
/*      NGA, ST. LOUIS,MO.                                  
/*   EPHEMERIS COMPUTED FROM 2 DAYS OF DATA                 
/*   EPOCHA v8 SMOOTHER                                     
/*   G2139 IERS2010 SATIGS SATAPC                           
*  2023 11  3  3 25  0.00000000
P  1  13419.401633 -13083.062481  18332.952138    163.254767                    
V  1  -1144.542346  24056.874066  18004.066829     -0.001437                    
P  2  14798.901654  -6691.397708  21488.663147   -533.973229                    
V  2    667.604449  26130.332479   8052.834183      0.049163                    
P  3  23360.702331 -12390.306944  -1884.562690    -39.330513                    
V  3   2959.015034   1081.282561  32161.844759      0.245342                    
P  4  16040.275683  -5740.056623 -20401.025556    202.275529                    
V  4  20212.027602  16190.069622  11206.927507      0.105857                    
P  5 -23703.844021   3446.316217 -11759.129657   -148.920304                    
V  5  11930.098993  -8674.264938 -26914.070599     -0.014463                    
P  6  -6589.694346 -22036.663480 -13130.804465    515.714230                    
V  6   3173.811632 -16549.601685  26134.558499     -0.093913                    
P  7   5483.922821 -25200.277803  -4701.048537     23.536791                    
V  7   2977.594245   6928.371572 -31064.247172     -0.100317                    
P  8  22115.850923   1890.519191  14807.393144   -150.271114                    
V  8  14710.902954  11843.047182 -22956.808929     -0.018341                    
P  9   6115.437864 -14250.214137 -21649.542511    -14.203812                    
V  9  22977.133277  14739.672404  -3279.756061      0.110759                    
P 10   2858.413409  14899.011353  21955.777089    -59.873724                    
V 10 -24956.435698  11338.080365  -4802.752197     -0.015185                    
P 11 -12630.303043 -11542.233520 -20307.745165   -443.445917                    
V 11   4327.509965 -25455.122776  11712.123491     -0.166627                    
P 12 -24636.874459   9817.028699   -259.762205   -442.836535                    
V 12  -1008.612787  -2583.361720  31878.980406     -0.041399                    
P 13 -21991.623239 -12196.843149   8675.535633    591.089457                    
V 13  -6759.794667  -9225.364019 -29212.830543      0.041682                    
P 14   1256.274381 -16711.610436  20591.604540    232.321863                    
V 14  24393.155168  -9567.075976  -9434.138221      0.108902                    
P 15 -21739.349414   1508.569684  14844.029689     93.350020                    
V 15 -16488.485416 -11094.791348 -22071.758777      0.037437                    
P 16  21693.206412   3490.612801 -15555.275627   -428.665826                    
V 16 -17285.235020   8037.318628 -22319.037202      0.064387                    
P 17  -8020.454815 -20056.017667  15807.119686    723.534184                    
V 17  16209.002849  10626.310922  22450.388626     -0.002078                    
P 18  -4941.629127  25766.821344  -3426.359781   -467.925843                    
V 18  -2059.761538  -4611.298964 -31782.197406     -0.112061                    
P 19 -15523.064572 -20304.839709   7658.039577    393.654566                    
V 19   8863.105500   4860.581902  29752.364818      0.052148                    
P 20 -16833.382605  -5359.921497 -19731.156048    403.586606                    
V 20  19846.341316 -15660.177157 -12830.546769     -0.019230                    
P 21  15350.344434  -2034.626918  22035.395445    145.251773                    
V 21    767.827866  26829.949571   2901.868290     -0.009463                    
P 22  -5706.110386 -14278.916530  22103.844310     91.019133                    
V 22  25285.643973  -9441.009457    716.553431     -0.070791                    
P 23 -10585.489259  17868.383836  16459.764571     92.636510                    
V 23 -19392.307215   8013.044235 -21360.250235      0.061388                    
P 24 -14711.999845   8321.090291  20000.506828   -362.013154                    
V 24  -1690.377375 -26465.518738   9999.555960     -0.092921                    
P 25 -16907.327108  17171.063185 -11180.379342    475.675552                    
V 25 -13635.729297   3605.070071  27201.889980      0.017257                    
P 26  14399.052202   9304.078576 -20494.988271    219.221965                    
V 26 -21973.034831  13466.682331  -9023.022337     -0.024874                    
P 27  23201.204007  12795.417024   3680.234657    -64.503726                    
V 27   2757.320778   4705.353517 -31124.620554     -0.054754                    
P 28   6688.835587  23161.727469 -11173.057818    -37.931654                    
V 28  -3075.312504  14017.294398  27275.604683     -0.079072                    
P 29  -7361.865671  13177.662786 -21890.787231   -610.231962                    
V 29 -21651.452413 -17211.755726  -3185.757774     -0.000107                    
P 30  -1422.533602 -25927.658580   4991.695243   -472.248609                    
V 30   4258.845289  -5911.551383 -30485.323359      0.039077                    
P 31  11132.586348  16062.049540 -17991.503469   -225.348211                    
V 31  -4224.357259  22307.760630  17905.656443     -0.004074                    
P 32  12936.468003  19594.435450  12794.165789   -581.027925                    
V 32 -14323.696450  -7170.721369  25629.377770     -0.047766                    
EOF
